1 08820U 76039A   03060.84769807 -.00000002  00000-0  10000-3 0  9202
2 08820 109.8265 144.8546 0044320 324.3353  35.4407  6.38664534370209
